{
  "type": "FeatureCollection",
  "features": [
    {
      "type": "Feature",
      "properties": {
        "norad_id": 66948,
        "name": "STARLINK-36116",
        "group": "last-30-days",
        "lat": -42.84613414099687,
        "lon": -121.36802960157327,
        "alt_km": 340.14595859079236,
        "timestamp": "2025-12-19T20:42:58.815064+00:00",
        "meta_object_name": "STARLINK-36116",
        "meta_object_id": "2025-286Z",
        "meta_epoch": "2025-12-19T06:00:02.000160",
        "meta_mean_motion": 15.80474452,
        "meta_eccentricity": 7.385e-05,
        "meta_inclination": 53.1549,
        "meta_ra_of_asc_node": 17.6314,
        "meta_arg_of_pericenter": 80.0909,
        "meta_mean_anomaly": 269.6738,
        "meta_ephemeris_type": 0,
        "meta_classification_type": "U",
        "meta_norad_cat_id": 66948,
        "meta_element_set_no": 999,
        "meta_rev_at_epoch": 303,
        "meta_bstar": -0.0092101278,
        "meta_mean_motion_dot": -0.01564789,
        "meta_mean_motion_ddot": 0,
        "tle_line1": "1 66948U 25286Z   25353.25002315 -.01564789  00000+0 -92101-2 0  9998",
        "tle_line2": "2 66948  53.1549  17.6314 0000738  80.0909 269.6738 15.80474452  3035"
      },
      "geometry": {
        "type": "Point",
        "coordinates": [
          -121.36802960157327,
          -42.84613414099687
        ]
      }
    },
    {
      "type": "Feature",
      "properties": {
        "norad_id": 66949,
        "name": "STARLINK-36096",
        "group": "last-30-days",
        "lat": -45.09786856773748,
        "lon": -116.64321434212901,
        "alt_km": 340.34983290556465,
        "timestamp": "2025-12-19T20:42:58.815074+00:00",
        "meta_object_name": "STARLINK-36096",
        "meta_object_id": "2025-286AA",
        "meta_epoch": "2025-12-19T06:00:02.000160",
        "meta_mean_motion": 15.80457233,
        "meta_eccentricity": 7.388e-05,
        "meta_inclination": 53.1551,
        "meta_ra_of_asc_node": 17.6225,
        "meta_arg_of_pericenter": 79.9334,
        "meta_mean_anomaly": 273.9826,
        "meta_ephemeris_type": 0,
        "meta_classification_type": "U",
        "meta_norad_cat_id": 66949,
        "meta_element_set_no": 999,
        "meta_rev_at_epoch": 303,
        "meta_bstar": -0.0093115964,
        "meta_mean_motion_dot": -0.01578728,
        "meta_mean_motion_ddot": 0,
        "tle_line1": "1 66949U 25286AA  25353.25002315 -.01578728  00000+0 -93116-2 0  9994",
        "tle_line2": "2 66949  53.1551  17.6225 0000738  79.9334 273.9826 15.80457233  3033"
      },
      "geometry": {
        "type": "Point",
        "coordinates": [
          -116.64321434212901,
          -45.09786856773748
        ]
      }
    },
    {
      "type": "Feature",
      "properties": {
        "norad_id": 66950,
        "name": "STARLINK-36111",
        "group": "last-30-days",
        "lat": -47.183538382198485,
        "lon": -111.42354460694152,
        "alt_km": 340.6843236980658,
        "timestamp": "2025-12-19T20:42:58.815087+00:00",
        "meta_object_name": "STARLINK-36111",
        "meta_object_id": "2025-286AB",
        "meta_epoch": "2025-12-19T06:00:02.000160",
        "meta_mean_motion": 15.80423004,
        "meta_eccentricity": 8.733e-05,
        "meta_inclination": 53.1549,
        "meta_ra_of_asc_node": 17.6138,
        "meta_arg_of_pericenter": 78.1952,
        "meta_mean_anomaly": 280.0088,
        "meta_ephemeris_type": 0,
        "meta_classification_type": "U",
        "meta_norad_cat_id": 66950,
        "meta_element_set_no": 999,
        "meta_rev_at_epoch": 303,
        "meta_bstar": -0.0094305605,
        "meta_mean_motion_dot": -0.01594182,
        "meta_mean_motion_ddot": 0,
        "tle_line1": "1 66950U 25286AB  25353.25002315 -.01594182  00000+0 -94306-2 0  9990",
        "tle_line2": "2 66950  53.1549  17.6138 0000873  78.1952 280.0088 15.80423004  3030"
      },
      "geometry": {
        "type": "Point",
        "coordinates": [
          -111.42354460694152,
          -47.183538382198485
        ]
      }
    },
    {
      "type": "Feature",
      "properties": {
        "norad_id": 66951,
        "name": "STARLINK-35999",
        "group": "last-30-days",
        "lat": -48.155904677593604,
        "lon": -108.59264075755034,
        "alt_km": 340.81479140423835,
        "timestamp": "2025-12-19T20:42:58.815098+00:00",
        "meta_object_name": "STARLINK-35999",
        "meta_object_id": "2025-286AC",
        "meta_epoch": "2025-12-19T06:00:02.000160",
        "meta_mean_motion": 15.80396532,
        "meta_eccentricity": 8.565e-05,
        "meta_inclination": 53.155,
        "meta_ra_of_asc_node": 17.6092,
        "meta_arg_of_pericenter": 81.1888,
        "meta_mean_anomaly": 279.2346,
        "meta_ephemeris_type": 0,
        "meta_classification_type": "U",
        "meta_norad_cat_id": 66951,
        "meta_element_set_no": 999,
        "meta_rev_at_epoch": 303,
        "meta_bstar": -0.0095022254,
        "meta_mean_motion_dot": -0.01602992,
        "meta_mean_motion_ddot": 0,
        "tle_line1": "1 66951U 25286AC  25353.25002315 -.01602992  00000+0 -95022-2 0  9996",
        "tle_line2": "2 66951  53.1550  17.6092 0000856  81.1888 279.2346 15.80396532  3037"
      },
      "geometry": {
        "type": "Point",
        "coordinates": [
          -108.59264075755034,
          -48.155904677593604
        ]
      }
    },
    {
      "type": "Feature",
      "properties": {
        "norad_id": 66952,
        "name": "STARLINK-36122",
        "group": "last-30-days",
        "lat": -46.17996755408818,
        "lon": -114.05934586374876,
        "alt_km": 340.6025395192146,
        "timestamp": "2025-12-19T20:42:58.815108+00:00",
        "meta_object_name": "STARLINK-36122",
        "meta_object_id": "2025-286AD",
        "meta_epoch": "2025-12-19T06:00:02.000160",
        "meta_mean_motion": 15.80436234,
        "meta_eccentricity": 9.137e-05,
        "meta_inclination": 53.1552,
        "meta_ra_of_asc_node": 17.6185,
        "meta_arg_of_pericenter": 78.1043,
        "meta_mean_anomaly": 277.9817,
        "meta_ephemeris_type": 0,
        "meta_classification_type": "U",
        "meta_norad_cat_id": 66952,
        "meta_element_set_no": 999,
        "meta_rev_at_epoch": 303,
        "meta_bstar": -0.0093681942,
        "meta_mean_motion_dot": -0.0158587,
        "meta_mean_motion_ddot": 0,
        "tle_line1": "1 66952U 25286AD  25353.25002315 -.01585870  00000+0 -93682-2 0  9992",
        "tle_line2": "2 66952  53.1552  17.6185 0000913  78.1043 277.9817 15.80436234  3038"
      },
      "geometry": {
        "type": "Point",
        "coordinates": [
          -114.05934586374876,
          -46.17996755408818
        ]
      }
    },
    {
      "type": "Feature",
      "properties": {
        "norad_id": 66953,
        "name": "HULIANWANG DIGUI-114",
        "group": "last-30-days",
        "lat": -23.410219936439294,
        "lon": -17.96137756610365,
        "alt_km": 1019.9794661514352,
        "timestamp": "2025-12-19T20:42:58.815118+00:00",
        "meta_object_name": "HULIANWANG DIGUI-114",
        "meta_object_id": "2025-287A",
        "meta_epoch": "2025-12-18T14:58:33.375360",
        "meta_mean_motion": 13.67416524,
        "meta_eccentricity": 0.00087038,
        "meta_inclination": 86.4968,
        "meta_ra_of_asc_node": 344.0089,
        "meta_arg_of_pericenter": 188.5983,
        "meta_mean_anomaly": 171.5028,
        "meta_ephemeris_type": 0,
        "meta_classification_type": "U",
        "meta_norad_cat_id": 66953,
        "meta_element_set_no": 999,
        "meta_rev_at_epoch": 133,
        "meta_bstar": 1.0869035e-05,
        "meta_mean_motion_dot": 2.6e-07,
        "meta_mean_motion_ddot": 0,
        "tle_line1": "1 66953U 25287A   25352.62399740  .00000026  00000+0  10869-4 0  9995",
        "tle_line2": "2 66953  86.4968 344.0089 0008703 188.5983 171.5028 13.67416524  1330"
      },
      "geometry": {
        "type": "Point",
        "coordinates": [
          -17.96137756610365,
          -23.410219936439294
        ]
      }
    },
    {
      "type": "Feature",
      "properties": {
        "norad_id": 66954,
        "name": "HULIANWANG DIGUI-115",
        "group": "last-30-days",
        "lat": -19.294877872000544,
        "lon": -17.6655750353055,
        "alt_km": 1019.5973548379143,
        "timestamp": "2025-12-19T20:42:58.815129+00:00",
        "meta_object_name": "HULIANWANG DIGUI-115",
        "meta_object_id": "2025-287B",
        "meta_epoch": "2025-12-18T14:57:30.566880",
        "meta_mean_motion": 13.67541232,
        "meta_eccentricity": 0.00089471,
        "meta_inclination": 86.4978,
        "meta_ra_of_asc_node": 344.0137,
        "meta_arg_of_pericenter": 187.4507,
        "meta_mean_anomaly": 172.652,
        "meta_ephemeris_type": 0,
        "meta_classification_type": "U",
        "meta_norad_cat_id": 66954,
        "meta_element_set_no": 999,
        "meta_rev_at_epoch": 133,
        "meta_bstar": 1.0944943e-05,
        "meta_mean_motion_dot": 2.6e-07,
        "meta_mean_motion_ddot": 0,
        "tle_line1": "1 66954U 25287B   25352.62327045  .00000026  00000+0  10945-4 0  9990",
        "tle_line2": "2 66954  86.4978 344.0137 0008947 187.4507 172.6520 13.67541232  1330"
      },
      "geometry": {
        "type": "Point",
        "coordinates": [
          -17.6655750353055,
          -19.294877872000544
        ]
      }
    }
  ]
}